SKYKRAFT-1A             
1 55054U 23001AX  26068.71064616  .00008177  00000+0  30069-3 0  9991
2 55054  97.3349 127.6290 0011277 121.5092 238.7251 15.28083228176529
STARLINK-35736          
1 66230U 25244AA  26068.65642788  .00020813  00000+0  71268-3 0  9992
2 66230  53.1586 230.1149 0001202  75.0475 285.0658 15.30209054 21657
